ONEWEB-0555             
1 56057U 23043M   25100.63257050  .00000050  00000+0  97231-4 0  9991
2 56057  87.9038 315.0000 0001970 104.3118 255.8231 13.16595320102042
ONEWEB-0557             
1 56058U 23043N   25100.87480844  .00000110  00000+0  25516-3 0  9990
2 56058  87.9038 314.9757 0002525 103.3915 256.7497 13.16594622102072
ONEWEB-0558             
1 56059U 23043P   25100.68627625  .00000061  00000+0  11675-3 0  9996
2 56059  87.9294 330.2309 0001478  68.8015 291.3277 13.21825468101108
ONEWEB-0559             
1 56060U 23043Q   25100.90232876  .00000138  00000+0  30361-3 0  9991
2 56060  87.9289 330.1812 0001900  69.6871 290.4467 13.21823171101145
ONEWEB-0566             
1 56061U 23043R   25100.89601086  .00000143  00000+0  31532-3 0  9990
2 56061  87.9290 330.1817 0001622  63.8478 296.2822 13.21827601101122
ONEWEB-0568             
1 56062U 23043S   25100.89222631  .00000138  00000+0  32830-3 0  9992
2 56062  87.9039 314.9376 0001758  95.4902 264.6429 13.16594608102098
ONEWEB-0574             
1 56063U 23043T   25100.88969832 -.00000365  00000+0 -91532-3 0  9991
2 56063  87.9292 330.1727 0002017  85.6952 274.4413 13.21824613101162
ONEWEB-0575             
1 56064U 23043U   25100.88589282  .00000124  00000+0  29172-3 0  9991
2 56064  87.9040 314.9515 0002193  93.1841 266.9541 13.16594681102088
ONEWEB-0576             
1 56065U 23043V   25100.63889414  .00000084  00000+0  18729-3 0  9996
2 56065  87.9037 314.9914 0001849  92.9793 267.1549 13.16594000102040
ONEWEB-0577             
1 56066U 23043W   25100.64523973  .00000123  00000+0  28728-3 0  9997
2 56066  87.9036 314.9906 0002462  93.1186 267.0227 13.16594418102070
ONEWEB-0578             
1 56067U 23043X   25100.87709573  .00000097  00000+0  20298-3 0  9999
2 56067  87.9293 330.1834 0001810  87.5191 272.6150 13.21823852101120
ONEWEB-0579             
1 56068U 23043Y   25100.64054488  .00000066  00000+0  12897-3 0  9995
2 56068  87.9291 330.2185 0001857  73.3188 286.8149 13.21826422101108
ONEWEB-0581             
1 56069U 23043Z   25101.03155550  .00000123  00000+0  28768-3 0  9990
2 56069  87.9038 314.9442 0002230  84.0155 276.1230 13.16594010103005
ONEWEB-0609             
1 56070U 23043AA  25100.72178376  .00000014  00000+0  35903-5 0  9998
2 56070  87.9109 345.3939 0001670  78.8337 281.2981 13.15549609 99574
ONEWEB-0613             
1 56071U 23043AB  25100.71702556 -.00000122  00000+0 -35820-3 0  9999
2 56071  87.9112 345.4029 0001799  71.2683 288.8643 13.15549505 99576
ONEWEB-0630             
1 56072U 23043AC  25100.71227706 -.00000145  00000+0 -41905-3 0  9995
2 56072  87.9110 345.3840 0001699  69.2044 290.9268 13.15548704 99568
ONEWEB-0632             
1 56073U 23043AD  25101.08780902 -.00000064  00000+0 -20354-3 0  9994
2 56073  87.9110 345.3290 0002045  78.1680 281.9680 13.15550426100520
ONEWEB-0633             
1 56074U 23043AE  25101.08147057 -.00000083  00000+0 -25501-3 0  9993
2 56074  87.9106 345.3007 0001532  66.3491 293.7800 13.15550000100502
ONEWEB-0634             
1 56075U 23043AF  25100.68692301 -.00000008  00000+0 -55282-4 0  9993
2 56075  87.9115 345.4098 0001402  82.7398 277.3892 13.15546622 99532
ONEWEB-0635             
1 56076U 23043AG  25100.68217125  .00000085  00000+0  19168-3 0  9996
2 56076  87.9086 345.4150 0002112  80.5556 279.5813 13.15549485 99560
ONEWEB-0636             
1 56077U 23043AH  25100.90242191  .00000147  00000+0  35541-3 0  9995
2 56077  87.9095 345.3747 0002022  79.7658 280.3700 13.15546728 99578
ONEWEB-0637             
1 56078U 23043AJ  25100.74396489  .00000185  00000+0  45804-3 0  9993
2 56078  87.9114 345.3974 0001944  89.0859 271.0494 13.15545534 99573
ONEWEB-0647             
1 56079U 23043AK  25100.73921890  .00000210  00000+0  52320-3 0  9993
2 56079  87.9111 345.4096 0001934  76.3777 283.7569 13.15547134 99564
ONEWEB-0651             
1 56080U 23043AL  25100.73445897  .00000239  00000+0  60007-3 0  9995
2 56080  87.9112 345.3964 0002083  85.4798 274.6570 13.15550322100769
ONEWEB-0718             
1 56081U 23043AM  25100.72969872  .00000100  00000+0  23114-3 0  9994
2 56081  87.9112 345.3813 0001383  89.8040 270.3249 13.15551322 99576
ONEWEB-0561             
1 56710U 23068A   25100.77801182  .00000063  00000+0  12207-3 0  9993
2 56710  87.9314   0.5540 0002432  77.3914 282.7491 13.20773523 93120
ONEWEB-0668             
1 56711U 23068B   25100.88192903  .00000202  00000+0  49416-3 0  9997
2 56711  87.9030 314.9321 0001519 104.3925 255.7375 13.16592287 95598
ONEWEB-0676             
1 56712U 23068C   25100.63415297  .00000120  00000+0  28137-3 0  9991
2 56712  87.9038 315.0089 0002280  82.0662 278.0727 13.16595644 94785
ONEWEB-0677             
1 56713U 23068D   25100.76696637 -.00000027  00000+0 -99348-4 0  9996
2 56713  87.9318   0.5295 0002068  85.2929 274.8440 13.20771077 93424
ONEWEB-0678             
1 56714U 23068E   25101.07830177 -.00000058  00000+0 -18710-3 0  9998
2 56714  87.9113 345.2818 0001834  68.8569 291.2757 13.15549881 93171
ONEWEB-0679             
1 56715U 23068F   25100.60327971  .00000051  00000+0  10062-3 0  9993
2 56715  87.9037 315.0095 0002055  99.8866 260.2497 13.16594418 94804
ONEWEB-0680             
1 56716U 23068G   25100.64369640  .00000102  00000+0  21521-3 0  9996
2 56716  87.9271 330.2376 0001626 106.2410 253.8902 13.21823955 93958
ONEWEB-0681             
1 56717U 23068H   25100.88103775  .00000070  00000+0  13710-3 0  9993
2 56717  87.9292 330.2025 0002750  87.4389 272.7059 13.21825723 94675
ONEWEB-0682             
1 56718U 23068J   25100.72416805  .00000102  00000+0  23561-3 0  9999
2 56718  87.9108 345.3849 0001722  98.2145 261.9181 13.15550920 92593
ONEWEB-0683             
1 56719U 23068K   25100.66949419  .00000146  00000+0  35421-3 0  9991
2 56719  87.9112 345.3670 0001618  90.1980 269.9335 13.15549471 92557
ONEWEB-0684             
1 56720U 23068L   25100.75347757  .00000162  00000+0  39663-3 0  9990
2 56720  87.9087 345.3857 0001623  29.2090 330.9131 13.15548915 92395
ONEWEB-0686             
1 56721U 23068M   25100.66898530  .00000123  00000+0  28689-3 0  9994
2 56721  87.9037 315.0329 0001434  88.3372 271.7923 13.16594457 94800
ONEWEB-0694             
1 56722U 23068N   25100.63573671  .00000131  00000+0  31004-3 0  9992
2 56722  87.9032 314.9579 0001699 100.1931 259.9391 13.16594657 94852
ONEWEB-0696             
1 56723U 23068P   25100.71069680 -.00000090  00000+0 -27380-3 0  9990
2 56723  87.9111 345.4109 0001828  69.8092 290.3235 13.15547884 92507
ONEWEB-0703             
1 56724U 23068Q   25101.10048771  .00000023  00000+0  28281-4 0  9999
2 56724  87.9090 345.3427 0002590  59.1492 300.9893 13.15549284 93144
ONEWEB-0721             
1 56725U 23068R   25100.81747729  .00000079  00000+0  15556-3 0  9997
2 56725  86.6816 223.2780 0001815 105.0264 255.1070 13.22431082100792
ONEWEB-0015             
1 61594U 24188A   25101.06159288  .00000060  00000+0  11418-3 0  9999
2 61594  87.8889 107.2344 0002468  95.5215 264.6200 13.21135991 25892
ONEWEB-0687             
1 61595U 24188B   25100.91668981 -.00966485  00000+0 -30205+0 0  9993
2 61595  86.9004  96.9295 0005253   4.8767 295.5970 14.44029184  5708
ONEWEB-0688             
1 61596U 24188C   25101.25002315 -.01110510  00000+0 -33480+0 0  9994
2 61596  86.8944  96.7753 0004919  21.9988 357.0521 14.45717285 26639
ONEWEB-0689             
1 61597U 24188D   25100.55191831  .00000013  00000+0 -64654-6 0  9997
2 61597  87.9358 107.3465 0001307  97.5324 262.5959 13.23770878 25873
ONEWEB-0690             
1 61598U 24188E   25101.25002315  .00000013  00000+0  00000+0 0  9991
2 61598  87.9308 107.1234 0008431  27.6302   3.6603 13.24910352 26118
ONEWEB-0691             
1 61599U 24188F   25100.58489301  .00000104  00000+0  21704-3 0  9990
2 61599  87.9384 107.3338 0002576  92.4597 267.6833 13.23154893 27779
ONEWEB-0692             
1 61600U 24188G   25099.98453718  .00000050  00000+0  87345-4 0  9991
2 61600  87.9382 107.4586 0001580  97.5654 262.5660 13.23287305 27687
ONEWEB-0693             
1 61601U 24188H   25100.91668981 -.01016415  00000+0 -34407+0 0  9999
2 61601  86.9226  96.8855 0004815  48.5260  15.4174 14.40244204  5779
ONEWEB-0695             
1 61602U 24188J   25101.25002315  .00000013  00000+0  00000+0 0  9997
2 61602  87.9190 107.1934 0004055  92.6305  49.9717 13.20050177 26095
ONEWEB-0697             
1 61603U 24188K   25101.05143738  .00000017  00000+0  10095-4 0  9995
2 61603  87.9359 107.2445 0001383  60.9237 299.2036 13.23427680 26087
ONEWEB-0698             
1 61604U 24188L   25100.57934124  .00000162  00000+0  35302-3 0  9997
2 61604  87.9382 107.3431 0001114  50.2283 309.8949 13.23377357 27767
ONEWEB-0699             
1 61605U 24188M   25100.57393797  .00000409  00000+0  11356-2 0  9999
2 61605  87.8800 122.5063 0001727  81.1832 278.9490 13.10375065 26659
ONEWEB-0700             
1 61606U 24188N   25100.57558151  .00000506  00000+0  14144-2 0  9993
2 61606  87.8714 122.4770 0001517 111.7511 248.3778 13.10375924 26642
ONEWEB-0701             
1 61607U 24188P   25100.59221385  .00000569  00000+0  15939-2 0  9994
2 61607  87.8796 122.5096 0001143  90.5151 269.6108 13.10371146 26650
ONEWEB-0702             
1 61608U 24188Q   25100.56525653  .00000034  00000+0  49055-4 0  9992
2 61608  87.9391 107.3652 0002367 103.2593 256.8806 13.23228157 27777
ONEWEB-0704             
1 61609U 24188R   25100.58057826  .00000607  00000+0  17020-2 0  9998
2 61609  87.8826 122.4232 0001186 114.8913 245.2337 13.10373624 26635
ONEWEB-0705             
1 61610U 24188S   25100.58558058  .00001517  00000+0  43097-2 0  9997
2 61610  87.8784 122.5066 0002056 127.2986 232.8329 13.10377324 18805
ONEWEB-0706             
1 61611U 24188T   25101.03870407  .00000142  00000+0  33753-3 0  9996
2 61611  87.9053 122.4164 0002936 101.9206 258.2254 13.16787485 24899
